<?xml version="1.0" encoding="UTF-8" standalone="no"?>
<gpx xmlns="http://www.topografix.com/GPX/1/1" creator="Apple Inc.">
    <!-- START MSP test -->
    <wpt lat="51.54466" lon="0.02019">
        <ele>18</ele>
        <name>test ping</name>
        <audioFile>msp-cb</audioFile>
        <color>
            <r>0.0</r>
            <g>0.0</g>
            <b>1.0</b>
            <a>0.7</a>
        </color>
        <phaseAudio>
            <cullDistance>10.0</cullDistance>
        </phaseAudio>
    </wpt>
    <!-- END MSP test -->
    <!-- START Matt -->
    <wpt lat="51.54470" lon="0.02066">
        <ele>21</ele>
        <name>matt-atlantis-15m</name>
        <audioFile>situationists-walkman Atlantis</audioFile>
        <color>
            <r>0.7</r>
            <g>0.2</g>
            <b>0.7</b>
            <a>0.7</a>
        </color>
        <phaseAudio>
            <cullDistance>15.0</cullDistance>
            <referenceLevel>0.6</referenceLevel>
        </phaseAudio>
    </wpt>
    <wpt lat="51.54474" lon="0.02120">
        <ele>21</ele>
        <name>matt-bela-20m</name>
        <audioFile>situationists-walkman Bela</audioFile>
        <color>
            <r>0.7</r>
            <g>0.2</g>
            <b>0.7</b>
            <a>0.7</a>
        </color>
        <phaseAudio>
            <cullDistance>20.0</cullDistance>
            <referenceLevel>0.6</referenceLevel>
        </phaseAudio>
    </wpt>
    <wpt lat="51.54505" lon="0.02128">
        <ele>21</ele>
        <name>matt-es8-3-15m</name>
        <audioFile>situationists-walkman Es8-3</audioFile>
        <color>
            <r>0.7</r>
            <g>0.2</g>
            <b>0.7</b>
            <a>0.7</a>
        </color>
        <phaseAudio>
            <cullDistance>15.0</cullDistance>
            <referenceLevel>0.6</referenceLevel>
        </phaseAudio>
    </wpt>
</gpx>
